OBJECT_NAME,OBJECT_ID,EPOCH,MEAN_MOTION,ECCENTRICITY,INCLINATION,RA_OF_ASC_NODE,ARG_OF_PERICENTER,MEAN_ANOMALY,EPHEMERIS_TYPE,CLASSIFICATION_TYPE,NORAD_CAT_ID,ELEMENT_SET_NO,REV_AT_EPOCH,BSTAR,MEAN_MOTION_DOT,MEAN_MOTION_DDOT
STARLINK-11138 [DTC],2024-107E,2026-07-05T00:21:39.894912,15.69734692,.00011521,53.1602,32.8617,70.5998,289.5145,0,U,59949,999,12063,.21641484E-4,.2036E-4,0
STARLINK-11130 [DTC],2024-107F,2026-07-04T23:11:10.417056,15.69729879,.00009944,53.1584,33.2733,89.7140,270.3992,0,U,59950,999,12056,.22523494E-4,.2143E-4,0
STARLINK-11124 [DTC],2024-107H,2026-07-04T19:53:41.508960,15.69725488,.00010007,53.1577,33.8353,93.7641,266.3491,0,U,59952,999,12061,.33878617E-4,.352E-4,0
STARLINK-11133 [DTC],2024-107K,2026-07-05T00:07:31.966176,15.69732801,.00001985,53.1580,32.7964,6.6434,353.4587,0,U,59954,999,12057,.27937203E-4,.2801E-4,0
STARLINK-11144 [DTC],2024-107L,2026-07-04T20:57:05.370912,15.69754507,.00005615,53.1590,33.3980,41.7605,318.3455,0,U,59955,999,12061,.6722042E-5,.228E-5,0
STARLINK-11134 [DTC],2024-107M,2026-07-04T23:53:24.763200,15.69726007,.0001237,53.1580,32.7326,80.1740,279.9417,0,U,59956,999,12050,.18617548E-4,.1668E-4,0
STARLINK-11142 [DTC],2024-107N,2026-07-04T23:46:20.767296,15.69728340,.00010023,53.1583,32.6990,86.8402,273.2730,0,U,59957,999,12058,.32478128E-4,.3351E-4,0
STARLINK-31995,2024-107P,2026-07-04T20:26:17.768256,15.34370894,.00022029,53.1610,240.6766,90.0194,270.1062,0,U,59958,999,11654,-.12880784E-4,-.812E-5,0
STARLINK-31989,2024-107Q,2026-07-04T10:30:09.834912,15.34408748,.00022865,53.1573,242.3628,95.0990,265.0274,0,U,59959,999,11768,.22111E-3,.7103E-4,0
STARLINK-31856,2024-107R,2026-07-05T03:32:48.372576,15.34404197,.00012767,53.1583,238.9732,91.0852,269.0296,0,U,59960,999,11779,.11530183E-3,.3522E-4,0
STARLINK-31993,2024-107S,2026-07-04T10:42:16.171200,15.34403424,.00010484,53.1595,242.4131,92.5963,267.5160,0,U,59961,999,11762,.14344736E-3,.4474E-4,0
STARLINK-31980,2024-107T,2026-07-04T10:24:05.213952,15.34409098,.00022615,53.1602,242.3347,26.7418,333.3701,0,U,59962,999,11768,.21627005E-3,.6939E-4,0
STARLINK-31991,2024-107U,2026-07-05T04:12:11.698560,15.34405656,.00010468,53.1577,239.1388,83.1552,276.9570,0,U,59963,999,11779,.18662587E-3,.5935E-4,0
STARLINK-31979,2024-107V,2026-07-05T03:44:55.706784,15.34409087,.00013243,53.1592,239.0193,78.3449,281.7702,0,U,59964,999,11774,.1938625E-3,.6181E-4,0
STARLINK-31978,2024-111A,2026-07-05T03:47:31.246656,15.31705265,.00006502,53.1589,249.6336,95.6254,264.4822,0,U,60016,999,11692,.71707647E-4,.1861E-4,0
STARLINK-31987,2024-111B,2026-07-04T12:14:38.034816,15.31713658,.00011841,53.1602,252.6989,90.8851,269.2286,0,U,60017,999,11688,.96848088E-4,.2643E-4,0
STARLINK-31984,2024-111C,2026-07-05T04:59:15.206496,15.30220106,.00009966,53.1569,249.9381,105.8271,254.2840,0,U,60018,999,11687,.54505815E-3,.15828E-3,0
STARLINK-31986,2024-111D,2026-07-04T05:14:47.954976,15.30185313,.00014328,53.1602,254.4267,91.0132,269.1033,0,U,60019,999,11688,.35413611E-4,.689E-5,0
STARLINK-31883,2024-111E,2026-07-04T13:33:55.300896,15.30198434,.0001135,53.1601,253.0385,95.4918,264.6212,0,U,60020,999,11687,.59472734E-4,.1403E-4,0
STARLINK-31967,2024-111F,2026-07-05T04:02:30.733728,15.34411083,.00015363,53.1581,247.5660,80.2851,279.8325,0,U,60021,999,11706,.10480963E-3,.3167E-4,0
STARLINK-31982,2024-111G,2026-07-05T03:53:25.670688,15.34393574,.00013312,53.1603,247.5322,85.2530,274.8624,0,U,60022,999,11706,.23505966E-4,.418E-5,0
STARLINK-31992,2024-111H,2026-07-04T14:31:29.740512,15.30210500,.00010526,53.1600,252.5789,83.2190,276.8930,0,U,60023,999,11694,.80759901E-4,.2034E-4,0
STARLINK-31990,2024-111J,2026-07-04T11:17:18.068928,15.30217079,.00010771,53.1600,253.1569,98.1013,262.0110,0,U,60024,999,11691,.14856688E-3,.4046E-4,0
STARLINK-31939,2024-111L,2026-07-04T21:55:56.134560,15.30199347,.00011726,53.1613,250.9466,72.6829,287.4300,0,U,60026,999,11698,.69325072E-4,.1695E-4,0
STARLINK-32012,2024-111M,2026-07-05T04:16:42.125376,15.30202529,.00011045,53.1600,249.7487,81.4795,278.6331,0,U,60027,999,11702,.66227664E-4,.1603E-4,0
STARLINK-32008,2024-111N,2026-07-04T11:08:12.376896,15.30214355,.00010624,53.1588,253.1105,95.0293,265.0829,0,U,60028,999,11691,.32529049E-3,.9291E-4,0
STARLINK-32006,2024-111P,2026-07-04T11:21:52.356960,15.30207753,.00009531,53.1602,253.1770,87.7277,272.3833,0,U,60029,999,11691,.8843475E-4,.2262E-4,0
STARLINK-32011,2024-111Q,2026-07-05T03:59:29.017248,15.34409654,.00016057,53.1583,247.5598,82.8878,277.2308,0,U,60030,999,11705,.87738202E-4,.259E-4,0
STARLINK-31878,2024-111R,2026-07-05T00:39:54.196704,15.34387316,.00013534,53.1607,197.5740,87.7802,272.3356,0,U,60031,999,11749,-.41969932E-4,-.1793E-4,0
STARLINK-32017,2024-111S,2026-07-04T14:36:05.894784,15.30190886,.00010968,53.1571,252.6155,90.5038,269.6088,0,U,60032,999,11693,.46071914E-3,.13307E-3,0
