STARLINK-11138 [DTC]    
1 59949U 24107E   26186.01504508  .00002036  00000+0  21641-4 0  9994
2 59949  53.1602  32.8617 0001152  70.5998 289.5145 15.69734692120637
STARLINK-11130 [DTC]    
1 59950U 24107F   26185.96609279  .00002143  00000+0  22523-4 0  9999
2 59950  53.1584  33.2733 0000994  89.7140 270.3992 15.69729879120567
STARLINK-11124 [DTC]    
1 59952U 24107H   26185.82895265  .00003520  00000+0  33879-4 0  9994
2 59952  53.1577  33.8353 0001000  93.7641 266.3491 15.69725488120612
STARLINK-11133 [DTC]    
1 59954U 24107K   26186.00523109  .00002801  00000+0  27937-4 0  9991
2 59954  53.1580  32.7964 0000198   6.6434 353.4587 15.69732801120570
STARLINK-11144 [DTC]    
1 59955U 24107L   26185.87297883  .00000228  00000+0  67220-5 0  9994
2 59955  53.1590  33.3980 0000561  41.7605 318.3455 15.69754507120617
STARLINK-11134 [DTC]    
1 59956U 24107M   26185.99542550  .00001668  00000+0  18618-4 0  9997
2 59956  53.1580  32.7326 0001237  80.1740 279.9417 15.69726007120504
STARLINK-11142 [DTC]    
1 59957U 24107N   26185.99051814  .00003351  00000+0  32478-4 0  9997
2 59957  53.1583  32.6990 0001002  86.8402 273.2730 15.69728340120587
STARLINK-31995          
1 59958U 24107P   26185.85159454 -.00000812  00000+0 -12881-4 0  9999
2 59958  53.1610 240.6766 0002202  90.0194 270.1062 15.34370894116543
STARLINK-31989          
1 59959U 24107Q   26185.43761383  .00007103  00000+0  22111-3 0  9998
2 59959  53.1573 242.3628 0002286  95.0990 265.0274 15.34408748117683
STARLINK-31856          
1 59960U 24107R   26186.14778209  .00003522  00000+0  11530-3 0  9998
2 59960  53.1583 238.9732 0001276  91.0852 269.0296 15.34404197117798
STARLINK-31993          
1 59961U 24107S   26185.44602050  .00004474  00000+0  14345-3 0  9995
2 59961  53.1595 242.4131 0001048  92.5963 267.5160 15.34403424117628
STARLINK-31980          
1 59962U 24107T   26185.43339368  .00006939  00000+0  21627-3 0  9993
2 59962  53.1602 242.3347 0002261  26.7418 333.3701 15.34409098117680
STARLINK-31991          
1 59963U 24107U   26186.17513540  .00005935  00000+0  18663-3 0  9993
2 59963  53.1577 239.1388 0001046  83.1552 276.9570 15.34405656117791
STARLINK-31979          
1 59964U 24107V   26186.15620031  .00006181  00000+0  19386-3 0  9993
2 59964  53.1592 239.0193 0001324  78.3449 281.7702 15.34409087117740
STARLINK-31978          
1 60016U 24111A   26186.15800054  .00001861  00000+0  71708-4 0  9990
2 60016  53.1589 249.6336 0000650  95.6254 264.4822 15.31705265116923
STARLINK-31987          
1 60017U 24111B   26185.51016244  .00002643  00000+0  96848-4 0  9991
2 60017  53.1602 252.6989 0001184  90.8851 269.2286 15.31713658116888
STARLINK-31984          
1 60018U 24111C   26186.20781489  .00015828  00000+0  54506-3 0  9992
2 60018  53.1569 249.9381 0000996 105.8271 254.2840 15.30220106116878
STARLINK-31986          
1 60019U 24111D   26185.21861059  .00000689  00000+0  35414-4 0  9992
2 60019  53.1602 254.4267 0001432  91.0132 269.1033 15.30185313116889
STARLINK-31883          
1 60020U 24111E   26185.56522339  .00001403  00000+0  59473-4 0  9993
2 60020  53.1601 253.0385 0001135  95.4918 264.6212 15.30198434116872
STARLINK-31967          
1 60021U 24111F   26186.16841127  .00003167  00000+0  10481-3 0  9994
2 60021  53.1581 247.5660 0001536  80.2851 279.8325 15.34411083117064
STARLINK-31982          
1 60022U 24111G   26186.16210267  .00000418  00000+0  23506-4 0  9999
2 60022  53.1603 247.5322 0001331  85.2530 274.8624 15.34393574117068
STARLINK-31992          
1 60023U 24111H   26185.60520533  .00002034  00000+0  80760-4 0  9999
2 60023  53.1600 252.5789 0001052  83.2190 276.8930 15.30210500116940
STARLINK-31990          
1 60024U 24111J   26185.47034802  .00004046  00000+0  14857-3 0  9992
2 60024  53.1600 253.1569 0001077  98.1013 262.0110 15.30217079116912
STARLINK-31939          
1 60026U 24111L   26185.91384415  .00001695  00000+0  69325-4 0  9999
2 60026  53.1613 250.9466 0001172  72.6829 287.4300 15.30199347116983
STARLINK-32012          
1 60027U 24111M   26186.17826534  .00001603  00000+0  66228-4 0  9990
2 60027  53.1600 249.7487 0001104  81.4795 278.6331 15.30202529117023
STARLINK-32008          
1 60028U 24111N   26185.46403214  .00009291  00000+0  32529-3 0  9995
2 60028  53.1588 253.1105 0001062  95.0293 265.0829 15.30214355116911
STARLINK-32006          
1 60029U 24111P   26185.47352265  .00002262  00000+0  88435-4 0  9995
2 60029  53.1602 253.1770 0000953  87.7277 272.3833 15.30207753116915
STARLINK-32011          
1 60030U 24111Q   26186.16630807  .00002590  00000+0  87738-4 0  9994
2 60030  53.1583 247.5598 0001605  82.8878 277.2308 15.34409654117053
STARLINK-31878          
1 60031U 24111R   26186.02771061 -.00001793  00000+0 -41970-4 0  9992
2 60031  53.1607 197.5740 0001353  87.7802 272.3356 15.34387316117492
STARLINK-32017          
1 60032U 24111S   26185.60840156  .00013307  00000+0  46072-3 0  9997
2 60032  53.1571 252.6155 0001096  90.5038 269.6088 15.30190886116932
